{"type": "FeatureCollection", "features": [ {"type": "Feature", "properties": {"norad_id": 31313, "name": "FENGYUN 1C DEB", "group": "fengyun-1c-debris", "lat": -70.97249087793664, "lon": 40.02450393889004, "alt_km": 810.2587323304697, "timestamp": "2025-12-09T14:52:26.443572+00:00", "meta": {"OBJECT_NAME": "FENGYUN 1C DEB", "OBJECT_ID": "1999-025BPR", "EPOCH": "2025-12-07T11:02:13.226784", "MEAN_MOTION": 14.22263344, "ECCENTRICITY": 0.00443954, "INCLINATION": 99.015, "RA_OF_ASC_NODE": 245.2258, "ARG_OF_PERICENTER": 196.4583, "MEAN_ANOMALY": 163.5155, "EPHEMERIS_TYPE": 0, "CLASSIFICATION_TYPE": "U", "NORAD_CAT_ID": 31313, "ELEMENT_SET_NO": 999, "REV_AT_EPOCH": 96987, "BSTAR": 0.00053787088, "MEAN_MOTION_DOT": 1.16e-05, "MEAN_MOTION_DDOT": 0}, "tle": {"line1": "1 31313U 99025BPR 25341.45987531  .00001160  00000+0  53787-3 0  9993", "line2": "2 31313  99.0150 245.2258 0044395 196.4583 163.5155 14.22263344969872"}}, "geometry": {"type": "Point", "coordinates": [40.02450393889004, -70.97249087793664]}}, {"type": "Feature", "properties": {"norad_id": 31314, "name": "FENGYUN 1C DEB", "group": "fengyun-1c-debris", "lat": 41.92736709917603, "lon": 165.7333915833472, "alt_km": 910.922757062609, "timestamp": "2025-12-09T14:52:26.443582+00:00", "meta": {"OBJECT_NAME": "FENGYUN 1C DEB", "OBJECT_ID": "1999-025BPS", "EPOCH": "2025-12-06T05:53:33.958752", "MEAN_MOTION": 14.04913607, "ECCENTRICITY": 0.00791603, "INCLINATION": 98.8218, "RA_OF_ASC_NODE": 334.4356, "ARG_OF_PERICENTER": 15.6231, "MEAN_ANOMALY": 344.7353, "EPHEMERIS_TYPE": 0, "CLASSIFICATION_TYPE": "U", "NORAD_CAT_ID": 31314, "ELEMENT_SET_NO": 999, "REV_AT_EPOCH": 60723, "BSTAR": 0.00045752491, "MEAN_MOTION_DOT": 7.13e-06, "MEAN_MOTION_DDOT": 0}, "tle": {"line1": "1 31314U 99025BPS 25340.24553193  .00000713  00000+0  45752-3 0  9999", "line2": "2 31314  98.8218 334.4356 0079160  15.6231 344.7353 14.04913607607231"}}, "geometry": {"type": "Point", "coordinates": [165.7333915833472, 41.92736709917603]}}, {"type": "Feature", "properties": {"norad_id": 31319, "name": "FENGYUN 1C DEB", "group": "fengyun-1c-debris", "lat": -34.69403144831421, "lon": -111.1640526557043, "alt_km": 1064.782124120743, "timestamp": "2025-12-09T14:52:26.443593+00:00", "meta": {"OBJECT_NAME": "FENGYUN 1C DEB", "OBJECT_ID": "1999-025BPX", "EPOCH": "2025-12-09T05:18:10.930176", "MEAN_MOTION": 13.75826497, "ECCENTRICITY": 0.0170629, "INCLINATION": 98.8309, "RA_OF_ASC_NODE": 242.2881, "ARG_OF_PERICENTER": 96.2706, "MEAN_ANOMALY": 56.024, "EPHEMERIS_TYPE": 0, "CLASSIFICATION_TYPE": "U", "NORAD_CAT_ID": 31319, "ELEMENT_SET_NO": 999, "REV_AT_EPOCH": 93639, "BSTAR": 0.00026333145, "MEAN_MOTION_DOT": 2.45e-06, "MEAN_MOTION_DDOT": 0}, "tle": {"line1": "1 31319U 99025BPX 25343.22095984  .00000245  00000+0  26333-3 0  9998", "line2": "2 31319  98.8309 242.2881 0170629  96.2706  56.0240 13.75826497936397"}}, "geometry": {"type": "Point", "coordinates": [-111.1640526557043, -34.69403144831421]}}, {"type": "Feature", "properties": {"norad_id": 31321, "name": "FENGYUN 1C DEB", "group": "fengyun-1c-debris", "lat": -12.192930282411503, "lon": -119.34308493256388, "alt_km": 829.5639304465149, "timestamp": "2025-12-09T14:52:26.443603+00:00", "meta": {"OBJECT_NAME": "FENGYUN 1C DEB", "OBJECT_ID": "1999-025BPZ", "EPOCH": "2025-11-28T23:11:37.489632", "MEAN_MOTION": 14.13809948, "ECCENTRICITY": 0.00293651, "INCLINATION": 98.7348, "RA_OF_ASC_NODE": 52.1537, "ARG_OF_PERICENTER": 217.1862, "MEAN_ANOMALY": 142.7277, "EPHEMERIS_TYPE": 0, "CLASSIFICATION_TYPE": "U", "NORAD_CAT_ID": 31321, "ELEMENT_SET_NO": 999, "REV_AT_EPOCH": 57189, "BSTAR": 0.00017233355, "MEAN_MOTION_DOT": 2.84e-06, "MEAN_MOTION_DDOT": 0}, "tle": {"line1": "1 31321U 99025BPZ 25332.96640613  .00000284  00000+0  17233-3 0  9997", "line2": "2 31321  98.7348  52.1537 0029365 217.1862 142.7277 14.13809948571893"}}, "geometry": {"type": "Point", "coordinates": [-119.34308493256388, -12.192930282411503]}}, {"type": "Feature", "properties": {"norad_id": 31322, "name": "FENGYUN 1C DEB", "group": "fengyun-1c-debris", "lat": -35.39272805658418, "lon": 53.87096443610968, "alt_km": 889.7608059729819, "timestamp": "2025-12-09T14:52:26.443614+00:00", "meta": {"OBJECT_NAME": "FENGYUN 1C DEB", "OBJECT_ID": "1999-025BQA", "EPOCH": "2025-12-08T23:52:58.153728", "MEAN_MOTION": 13.72994467, "ECCENTRICITY": 0.0238726, "INCLINATION": 98.5739, "RA_OF_ASC_NODE": 47.1579, "ARG_OF_PERICENTER": 20.2617, "MEAN_ANOMALY": 100.4309, "EPHEMERIS_TYPE": 0, "CLASSIFICATION_TYPE": "U", "NORAD_CAT_ID": 31322, "ELEMENT_SET_NO": 999, "REV_AT_EPOCH": 62224, "BSTAR": 0.00026306, "MEAN_MOTION_DOT": 2.61e-06, "MEAN_MOTION_DDOT": 0}, "tle": {"line1": "1 31322U 99025BQA 25342.99511752  .00000261  00000+0  26306-3 0  9999", "line2": "2 31322  98.5739  47.1579 0238726  20.2617 100.4309 13.72994467622248"}}, "geometry": {"type": "Point", "coordinates": [53.87096443610968, -35.39272805658418]}}, {"type": "Feature", "properties": {"norad_id": 31323, "name": "FENGYUN 1C DEB", "group": "fengyun-1c-debris", "lat": -9.342869607327982, "lon": 23.41408918844826, "alt_km": 807.087967427804, "timestamp": "2025-12-09T14:52:26.443624+00:00", "meta": {"OBJECT_NAME": "FENGYUN 1C DEB", "OBJECT_ID": "1999-025BQB", "EPOCH": "2025-12-08T20:24:53.296704", "MEAN_MOTION": 14.27547712, "ECCENTRICITY": 0.0031659, "INCLINATION": 99.4204, "RA_OF_ASC_NODE": 21.0206, "ARG_OF_PERICENTER": 90.9492, "MEAN_ANOMALY": 269.5314, "EPHEMERIS_TYPE": 0, "CLASSIFICATION_TYPE": "U", "NORAD_CAT_ID": 31323, "ELEMENT_SET_NO": 999, "REV_AT_EPOCH": 63925, "BSTAR": 0.0017663, "MEAN_MOTION_DOT": 4.319e-05, "MEAN_MOTION_DDOT": 0}, "tle": {"line1": "1 31323U 99025BQB 25342.85061686  .00004319  00000+0  17663-2 0  9994", "line2": "2 31323  99.4204  21.0206 0031659  90.9492 269.5314 14.27547712639255"}}, "geometry": {"type": "Point", "coordinates": [23.41408918844826, -9.342869607327982]}}, {"type": "Feature", "properties": {"norad_id": 31324, "name": "FENGYUN 1C DEB", "group": "fengyun-1c-debris", "lat": -62.860767724690774, "lon": 66.75732354162797, "alt_km": 837.5164457323053, "timestamp": "2025-12-09T14:52:26.443634+00:00", "meta": {"OBJECT_NAME": "FENGYUN 1C DEB", "OBJECT_ID": "1999-025BQC", "EPOCH": "2025-12-07T05:42:12.838176", "MEAN_MOTION": 14.1468856, "ECCENTRICITY": 0.00495023, "INCLINATION": 99.1231, "RA_OF_ASC_NODE": 262.5935, "ARG_OF_PERICENTER": 319.9543, "MEAN_ANOMALY": 39.7984, "EPHEMERIS_TYPE": 0, "CLASSIFICATION_TYPE": "U", "NORAD_CAT_ID": 31324, "ELEMENT_SET_NO": 999, "REV_AT_EPOCH": 96408, "BSTAR": 0.0003363527, "MEAN_MOTION_DOT": 6.08e-06, "MEAN_MOTION_DDOT": 0}, "tle": {"line1": "1 31324U 99025BQC 25341.23764859  .00000608  00000+0  33635-3 0  9993", "line2": "2 31324  99.1231 262.5935 0049502 319.9543  39.7984 14.14688560964086"}}, "geometry": {"type": "Point", "coordinates": [66.75732354162797, -62.860767724690774]}}, {"type": "Feature", "properties": {"norad_id": 31325, "name": "FENGYUN 1C DEB", "group": "fengyun-1c-debris", "lat": 48.35106572617681, "lon": -92.00234881825583, "alt_km": 838.9086341793809, "timestamp": "2025-12-09T14:52:26.443644+00:00", "meta": {"OBJECT_NAME": "FENGYUN 1C DEB", "OBJECT_ID": "1999-025BQD", "EPOCH": "2025-12-08T12:49:45.026688", "MEAN_MOTION": 14.16832394, "ECCENTRICITY": 0.0071877, "INCLINATION": 98.9914, "RA_OF_ASC_NODE": 76.6463, "ARG_OF_PERICENTER": 232.309, "MEAN_ANOMALY": 127.1552, "EPHEMERIS_TYPE": 0, "CLASSIFICATION_TYPE": "U", "NORAD_CAT_ID": 31325, "ELEMENT_SET_NO": 999, "REV_AT_EPOCH": 59718, "BSTAR": 0.0032596677, "MEAN_MOTION_DOT": 6.657e-05, "MEAN_MOTION_DDOT": 0}, "tle": {"line1": "1 31325U 99025BQD 25342.53454892  .00006657  00000+0  32597-2 0  9996", "line2": "2 31325  98.9914  76.6463 0071877 232.3090 127.1552 14.16832394597181"}}, "geometry": {"type": "Point", "coordinates": [-92.00234881825583, 48.35106572617681]}}, {"type": "Feature", "properties": {"norad_id": 31326, "name": "FENGYUN 1C DEB", "group": "fengyun-1c-debris", "lat": -56.46257573355583, "lon": 31.264255347835682, "alt_km": 573.9918745222321, "timestamp": "2025-12-09T14:52:26.443654+00:00", "meta": {"OBJECT_NAME": "FENGYUN 1C DEB", "OBJECT_ID": "1999-025BQE", "EPOCH": "2025-11-25T14:42:32.298048", "MEAN_MOTION": 14.96360134, "ECCENTRICITY": 0.00187059, "INCLINATION": 99.013, "RA_OF_ASC_NODE": 208.9742, "ARG_OF_PERICENTER": 1.9794, "MEAN_ANOMALY": 358.1494, "EPHEMERIS_TYPE": 0, "CLASSIFICATION_TYPE": "U", "NORAD_CAT_ID": 31326, "ELEMENT_SET_NO": 999, "REV_AT_EPOCH": 73489, "BSTAR": 0.0084230344, "MEAN_MOTION_DOT": 0.00096893, "MEAN_MOTION_DDOT": 0}, "tle": {"line1": "1 31326U 99025BQE 25329.61287382  .00096893  00000+0  84230-2 0  9991", "line2": "2 31326  99.0130 208.9742 0018705   1.9794 358.1494 14.96360134734894"}}, "geometry": {"type": "Point", "coordinates": [31.264255347835682, -56.46257573355583]}}, {"type": "Feature", "properties": {"norad_id": 31327, "name": "FENGYUN 1C DEB", "group": "fengyun-1c-debris", "lat": -79.52680894854846, "lon": 43.31680937202706, "alt_km": 556.2591334215831, "timestamp": "2025-12-09T14:52:26.443664+00:00", "meta": {"OBJECT_NAME": "FENGYUN 1C DEB", "OBJECT_ID": "1999-025BQF", "EPOCH": "2025-12-06T06:09:55.835136", "MEAN_MOTION": 15.10366865, "ECCENTRICITY": 0.00883653, "INCLINATION": 98.9841, "RA_OF_ASC_NODE": 340.5203, "ARG_OF_PERICENTER": 31.1175, "MEAN_ANOMALY": 329.5241, "EPHEMERIS_TYPE": 0, "CLASSIFICATION_TYPE": "U", "NORAD_CAT_ID": 31327, "ELEMENT_SET_NO": 999, "REV_AT_EPOCH": 1, "BSTAR": 0.0026153573, "MEAN_MOTION_DOT": 0.00047286, "MEAN_MOTION_DDOT": 0}, "tle": {"line1": "1 31327U 99025BQF 25340.25689624  .00047286  00000+0  26154-2 0  9993", "line2": "2 31327  98.9841 340.5203 0088365  31.1175 329.5241 15.10366865    10"}}, "geometry": {"type": "Point", "coordinates": [43.31680937202706, -79.52680894854846]}}]}